[Satellite]
VERSION=1.1
NAME=MEASAT-3B
NICKNAME=MEASAT-3B
TLE1=1 40147U 14054B   15054.95034338 -.00000266  00000-0  10000-3 0  9999
TLE2=2 40147   0.0186 299.6418 0002521  37.1398 250.3071  1.00268570  1742
